STARLINK-36253          
1 68028U 26040P   26084.58335648 -.01925585  00000+0 -42259-1 0  9997
2 68028  97.2842  33.4380 0002226 102.4679 222.0862 15.47209697  5085
STARLINK-36944          
1 68029U 26040Q   26084.61740028  .00222565  00000+0  14499-2 0  9995
2 68029  97.2863  33.8637 0001724  68.6747 291.4702 15.75263625  3868
STARLINK-36942          
1 68030U 26040R   26084.42611013  .00134514  00000+0  88661-3 0  9996
2 68030  97.2855  33.6676 0001315  97.8510 262.2905 15.75241173  3832
STARLINK-36913          
1 68031U 26040S   26084.36188160  .00259399  00000+0  16850-2 0  9991
2 68031  97.2859  33.6022 0001768 103.8086 256.3376 15.75227019  3828
STARLINK-36935          
1 68032U 26040T   26084.61104756  .00200485  00000+0  13098-2 0  9992
2 68032  97.2856  33.8763 0002167 124.4476 235.6994 15.75258139  3863
STARLINK-36947          
1 68033U 26040U   26084.36117946  .00266203  00000+0  17290-2 0  9998
2 68033  97.2849  33.6037 0002647  86.4384 273.7184 15.75210284  3825
STARLINK-36939          
1 68034U 26040V   26084.42187769  .00183159  00000+0  11992-2 0  9997
2 68034  97.2845  33.6756 0002454  93.1314 267.0233 15.75256695  3832
STARLINK-36943          
1 68035U 26040W   26084.29375317  .00311962  00000+0  20051-2 0  9992
2 68035  97.2858  33.5463 0001237 178.4606 181.6663 15.75325805  4941
STARLINK-36906          
1 68036U 26040X   26084.42258460  .00206807  00000+0  13511-2 0  9991
2 68036  97.2841  33.6748 0002220  89.8326 270.3193 15.75240958  3834
STARLINK-36388          
1 68037U 26040Y   26084.42090021 -.00147967  00000+0 -95965-3 0  9996
2 68037  97.2881  33.6773 0003697 305.6142  54.4779 15.76314902  3834
STARLINK-36895          
1 68038U 26040Z   26084.42329024  .00220891  00000+0  14407-2 0  9992
2 68038  97.2850  33.6712 0002157  91.8245 268.3267 15.75239839  3834
STARLINK-36373          
1 68039U 26040AA  26084.36047654  .00270347  00000+0  17556-2 0  9991
2 68039  97.2848  33.6040 0003637  59.2387 300.9236 15.75199565  3824
