CCSDS_OMM_VERS = 2.0
CREATION_DATE  = 
ORIGINATOR     = 

OBJECT_NAME    = STARLINK-36253
OBJECT_ID      = 2026-040P
CENTER_NAME    = EARTH
REF_FRAME      = TEME
TIME_SYSTEM    = UTC
MEAN_ELEMENT_THEORY = SGP/SGP4

EPOCH          = 2026-03-25T14:00:01.999872
MEAN_MOTION    = 15.47209697
ECCENTRICITY   = .00022261
INCLINATION    = 97.2842
RA_OF_ASC_NODE = 33.4380
ARG_OF_PERICENTER = 102.4679
MEAN_ANOMALY   = 222.0862

EPHEMERIS_TYPE = 0
CLASSIFICATION_TYPE = U
NORAD_CAT_ID   = 68028
ELEMENT_SET_NO = 999
REV_AT_EPOCH   = 508
BSTAR          = -.42258688E-1
MEAN_MOTION_DOT = -.1925585E-1
MEAN_MOTION_DDOT = 0

CCSDS_OMM_VERS = 2.0
CREATION_DATE  = 
ORIGINATOR     = 

OBJECT_NAME    = STARLINK-36944
OBJECT_ID      = 2026-040Q
CENTER_NAME    = EARTH
REF_FRAME      = TEME
TIME_SYSTEM    = UTC
MEAN_ELEMENT_THEORY = SGP/SGP4

EPOCH          = 2026-03-25T14:49:03.384192
MEAN_MOTION    = 15.75263625
ECCENTRICITY   = .00017243
INCLINATION    = 97.2863
RA_OF_ASC_NODE = 33.8637
ARG_OF_PERICENTER = 68.6747
MEAN_ANOMALY   = 291.4702

EPHEMERIS_TYPE = 0
CLASSIFICATION_TYPE = U
NORAD_CAT_ID   = 68029
ELEMENT_SET_NO = 999
REV_AT_EPOCH   = 386
BSTAR          = .14498523E-2
MEAN_MOTION_DOT = .222565E-2
MEAN_MOTION_DDOT = 0

CCSDS_OMM_VERS = 2.0
CREATION_DATE  = 
ORIGINATOR     = 

OBJECT_NAME    = STARLINK-36942
OBJECT_ID      = 2026-040R
CENTER_NAME    = EARTH
REF_FRAME      = TEME
TIME_SYSTEM    = UTC
MEAN_ELEMENT_THEORY = SGP/SGP4

EPOCH          = 2026-03-25T10:13:35.915232
MEAN_MOTION    = 15.75241173
ECCENTRICITY   = .00013158
INCLINATION    = 97.2855
RA_OF_ASC_NODE = 33.6676
ARG_OF_PERICENTER = 97.8510
MEAN_ANOMALY   = 262.2905

EPHEMERIS_TYPE = 0
CLASSIFICATION_TYPE = U
NORAD_CAT_ID   = 68030
ELEMENT_SET_NO = 999
REV_AT_EPOCH   = 383
BSTAR          = .88661191E-3
MEAN_MOTION_DOT = .134514E-2
MEAN_MOTION_DDOT = 0

CCSDS_OMM_VERS = 2.0
CREATION_DATE  = 
ORIGINATOR     = 

OBJECT_NAME    = STARLINK-36913
OBJECT_ID      = 2026-040S
CENTER_NAME    = EARTH
REF_FRAME      = TEME
TIME_SYSTEM    = UTC
MEAN_ELEMENT_THEORY = SGP/SGP4

EPOCH          = 2026-03-25T08:41:06.570240
MEAN_MOTION    = 15.75227019
ECCENTRICITY   = .00017684
INCLINATION    = 97.2859
RA_OF_ASC_NODE = 33.6022
ARG_OF_PERICENTER = 103.8086
MEAN_ANOMALY   = 256.3376

EPHEMERIS_TYPE = 0
CLASSIFICATION_TYPE = U
NORAD_CAT_ID   = 68031
ELEMENT_SET_NO = 999
REV_AT_EPOCH   = 382
BSTAR          = .16849902E-2
MEAN_MOTION_DOT = .259399E-2
MEAN_MOTION_DDOT = 0

CCSDS_OMM_VERS = 2.0
CREATION_DATE  = 
ORIGINATOR     = 

OBJECT_NAME    = STARLINK-36935
OBJECT_ID      = 2026-040T
CENTER_NAME    = EARTH
REF_FRAME      = TEME
TIME_SYSTEM    = UTC
MEAN_ELEMENT_THEORY = SGP/SGP4

EPOCH          = 2026-03-25T14:39:54.509184
MEAN_MOTION    = 15.75258139
ECCENTRICITY   = .00021671
INCLINATION    = 97.2856
RA_OF_ASC_NODE = 33.8763
ARG_OF_PERICENTER = 124.4476
MEAN_ANOMALY   = 235.6994

EPHEMERIS_TYPE = 0
CLASSIFICATION_TYPE = U
NORAD_CAT_ID   = 68032
ELEMENT_SET_NO = 999
REV_AT_EPOCH   = 386
BSTAR          = .13097888E-2
MEAN_MOTION_DOT = .200485E-2
MEAN_MOTION_DDOT = 0

CCSDS_OMM_VERS = 2.0
CREATION_DATE  = 
ORIGINATOR     = 

OBJECT_NAME    = STARLINK-36947
OBJECT_ID      = 2026-040U
CENTER_NAME    = EARTH
REF_FRAME      = TEME
TIME_SYSTEM    = UTC
MEAN_ELEMENT_THEORY = SGP/SGP4

EPOCH          = 2026-03-25T08:40:05.905344
MEAN_MOTION    = 15.75210284
ECCENTRICITY   = .00026477
INCLINATION    = 97.2849
RA_OF_ASC_NODE = 33.6037
ARG_OF_PERICENTER = 86.4384
MEAN_ANOMALY   = 273.7184

EPHEMERIS_TYPE = 0
CLASSIFICATION_TYPE = U
NORAD_CAT_ID   = 68033
ELEMENT_SET_NO = 999
REV_AT_EPOCH   = 382
BSTAR          = .17289525E-2
MEAN_MOTION_DOT = .266203E-2
MEAN_MOTION_DDOT = 0

CCSDS_OMM_VERS = 2.0
CREATION_DATE  = 
ORIGINATOR     = 

OBJECT_NAME    = STARLINK-36939
OBJECT_ID      = 2026-040V
CENTER_NAME    = EARTH
REF_FRAME      = TEME
TIME_SYSTEM    = UTC
MEAN_ELEMENT_THEORY = SGP/SGP4

EPOCH          = 2026-03-25T10:07:30.232416
MEAN_MOTION    = 15.75256695
ECCENTRICITY   = .00024546
INCLINATION    = 97.2845
RA_OF_ASC_NODE = 33.6756
ARG_OF_PERICENTER = 93.1314
MEAN_ANOMALY   = 267.0233

EPHEMERIS_TYPE = 0
CLASSIFICATION_TYPE = U
NORAD_CAT_ID   = 68034
ELEMENT_SET_NO = 999
REV_AT_EPOCH   = 383
BSTAR          = .11991606E-2
MEAN_MOTION_DOT = .183159E-2
MEAN_MOTION_DDOT = 0

CCSDS_OMM_VERS = 2.0
CREATION_DATE  = 
ORIGINATOR     = 

OBJECT_NAME    = STARLINK-36943
OBJECT_ID      = 2026-040W
CENTER_NAME    = EARTH
REF_FRAME      = TEME
TIME_SYSTEM    = UTC
MEAN_ELEMENT_THEORY = SGP/SGP4

EPOCH          = 2026-03-25T07:03:00.273888
MEAN_MOTION    = 15.75325805
ECCENTRICITY   = .00012379
INCLINATION    = 97.2858
RA_OF_ASC_NODE = 33.5463
ARG_OF_PERICENTER = 178.4606
MEAN_ANOMALY   = 181.6663

EPHEMERIS_TYPE = 0
CLASSIFICATION_TYPE = U
NORAD_CAT_ID   = 68035
ELEMENT_SET_NO = 999
REV_AT_EPOCH   = 494
BSTAR          = .2005109E-2
MEAN_MOTION_DOT = .311962E-2
MEAN_MOTION_DDOT = 0

CCSDS_OMM_VERS = 2.0
CREATION_DATE  = 
ORIGINATOR     = 

OBJECT_NAME    = STARLINK-36906
OBJECT_ID      = 2026-040X
CENTER_NAME    = EARTH
REF_FRAME      = TEME
TIME_SYSTEM    = UTC
MEAN_ELEMENT_THEORY = SGP/SGP4

EPOCH          = 2026-03-25T10:08:31.309440
MEAN_MOTION    = 15.75240958
ECCENTRICITY   = .00022203
INCLINATION    = 97.2841
RA_OF_ASC_NODE = 33.6748
ARG_OF_PERICENTER = 89.8326
MEAN_ANOMALY   = 270.3193

EPHEMERIS_TYPE = 0
CLASSIFICATION_TYPE = U
NORAD_CAT_ID   = 68036
ELEMENT_SET_NO = 999
REV_AT_EPOCH   = 383
BSTAR          = .135106E-2
MEAN_MOTION_DOT = .206807E-2
MEAN_MOTION_DDOT = 0

CCSDS_OMM_VERS = 2.0
CREATION_DATE  = 
ORIGINATOR     = 

OBJECT_NAME    = STARLINK-36388
OBJECT_ID      = 2026-040Y
CENTER_NAME    = EARTH
REF_FRAME      = TEME
TIME_SYSTEM    = UTC
MEAN_ELEMENT_THEORY = SGP/SGP4

EPOCH          = 2026-03-25T10:06:05.778144
MEAN_MOTION    = 15.76314902
ECCENTRICITY   = .00036973
INCLINATION    = 97.2881
RA_OF_ASC_NODE = 33.6773
ARG_OF_PERICENTER = 305.6142
MEAN_ANOMALY   = 54.4779

EPHEMERIS_TYPE = 0
CLASSIFICATION_TYPE = U
NORAD_CAT_ID   = 68037
ELEMENT_SET_NO = 999
REV_AT_EPOCH   = 383
BSTAR          = -.95965017E-3
MEAN_MOTION_DOT = -.147967E-2
MEAN_MOTION_DDOT = 0

CCSDS_OMM_VERS = 2.0
CREATION_DATE  = 
ORIGINATOR     = 

OBJECT_NAME    = STARLINK-36895
OBJECT_ID      = 2026-040Z
CENTER_NAME    = EARTH
REF_FRAME      = TEME
TIME_SYSTEM    = UTC
MEAN_ELEMENT_THEORY = SGP/SGP4

EPOCH          = 2026-03-25T10:09:32.276736
MEAN_MOTION    = 15.75239839
ECCENTRICITY   = .0002157
INCLINATION    = 97.2850
RA_OF_ASC_NODE = 33.6712
ARG_OF_PERICENTER = 91.8245
MEAN_ANOMALY   = 268.3267

EPHEMERIS_TYPE = 0
CLASSIFICATION_TYPE = U
NORAD_CAT_ID   = 68038
ELEMENT_SET_NO = 999
REV_AT_EPOCH   = 383
BSTAR          = .14406924E-2
MEAN_MOTION_DOT = .220891E-2
MEAN_MOTION_DDOT = 0

CCSDS_OMM_VERS = 2.0
CREATION_DATE  = 
ORIGINATOR     = 

OBJECT_NAME    = STARLINK-36373
OBJECT_ID      = 2026-040AA
CENTER_NAME    = EARTH
REF_FRAME      = TEME
TIME_SYSTEM    = UTC
MEAN_ELEMENT_THEORY = SGP/SGP4

EPOCH          = 2026-03-25T08:39:05.173056
MEAN_MOTION    = 15.75199565
ECCENTRICITY   = .00036375
INCLINATION    = 97.2848
RA_OF_ASC_NODE = 33.6040
ARG_OF_PERICENTER = 59.2387
MEAN_ANOMALY   = 300.9236

EPHEMERIS_TYPE = 0
CLASSIFICATION_TYPE = U
NORAD_CAT_ID   = 68039
ELEMENT_SET_NO = 999
REV_AT_EPOCH   = 382
BSTAR          = .17556226E-2
MEAN_MOTION_DOT = .270347E-2
MEAN_MOTION_DDOT = 0

